STARLINK-1330_new
1 15577C 20025AY  21326.16890484  .00005362  00000-0  35926-3 0  3269
2 15577  53.0526 277.9904 0001790  56.2842 272.5612 15.06389923    15
STARLINK-1330_old
1 25577C 20025AY  21325.12429616 -.00021971  00000-0 -14720-2 0  3252
2 25577  53.0529 282.6796 0001795  55.3205   5.4186 15.06423051    18
